ONEWEB-0605             
1 54669U 22166AD  22354.52227326  .00003074  00000+0  30945-3 0  9999
2 54669  86.5169 153.2323 0007095 201.1532 158.9402 14.90834336  2025
ONEWEB-0606             
1 54670U 22166AE  22354.52027616  .00003049  00000+0  30492-3 0  9990
2 54670  86.5189 153.2343 0007722 193.6732 166.4288 14.91092993  2027
ONEWEB-0607             
1 54671U 22166AF  22354.52070330  .00002988  00000+0  29926-3 0  9993
2 54671  86.5148 153.2277 0007578 195.2103 164.8898 14.91033970  2027
ONEWEB-0608             
1 54672U 22166AG  22354.51296534  .00003157  00000+0  30822-3 0  9995
2 54672  86.5163 153.2270 0011734 195.3393 164.7481 14.92035176  2027
ONEWEB-0610             
1 54673U 22166AH  22354.45293910  .00001933  00000+0  19216-3 0  9998
2 54673  86.5158 153.2584 0007771 193.2829 166.8195 14.91107196  2012
ONEWEB-0611             
1 54674U 22166AJ  22354.51543677  .00003243  00000+0  31928-3 0  9994
2 54674  86.5177 153.2307 0010459 190.4920 169.6091 14.91718990  2022
ONEWEB-0612             
1 54675U 22166AK  22354.52130328  .00003010  00000+0  30206-3 0  9991
2 54675  86.5190 153.2352 0007330 196.9724 163.1260 14.90957130  2022
ONEWEB-0615             
1 54676U 22166AL  22354.51722592  .00003146  00000+0  31157-3 0  9997
2 54676  86.5176 153.2321 0009467 189.1705 170.9351 14.91484045  2027
ONEWEB-0655             
1 54677U 22166AM  22354.45029593  .00002820  00000+0  27919-3 0  9991
2 54677  86.5162 153.2564 0009369 189.6370 170.4679 14.91458264  2017
ONEWEB-0659             
1 54678U 22166AN  22354.51679724  .00003121  00000+0  30865-3 0  9995
2 54678  86.5163 153.2259 0009708 189.4022 170.7026 14.91540984  2020
ONEWEB-0685             
1 54679U 22166AP  22354.45483169  .00002747  00000+0  27603-3 0  9994
2 54679  86.5184 153.2642 0007145 199.6817 160.4136 14.90866359  2011
ONEWEB-0712             
1 54680U 22166AQ  22354.44570056  .00003267  00000+0  31881-3 0  9998
2 54680  86.5176 153.2560 0011807 195.9771 164.1087 14.92063049  2014
ONEWEB-0714             
1 54681U 22166AR  22354.44408412  .00000786  00000+0  74111-4 0  9992
2 54681  86.5181 153.2552 0012239 199.7157 160.3599 14.92279633  2016
2022-167A               
1 54682U 22167A   22354.82236192  .00010928  00000+0  69698-3 0  9992
2 54682  97.5352 129.6116 0013671 223.7445 303.5736 15.08802358  1748
2022-167B               
1 54683U 22167B   22354.81089122  .00035268  00000+0  39904-3 0  9992
2 54683  97.5861 130.2748 0202828 284.2753  73.6135 15.41201326  1755
CAS-5A (FO-118)         
1 54684U 22167C   22354.82169317  .00008590  00000+0  54769-3 0  9993
2 54684  97.5374 129.6154 0014007 225.6019 302.3966 15.08880133  1736
2022-167D               
1 54685U 22167D   22354.87394715  .00006116  00000+0  38502-3 0  9990
2 54685  97.5431 129.6865 0012919 238.7383 239.1552 15.09482128  1741
2022-167E               
1 54686U 22167E   22354.87392772  .00006105  00000+0  38436-3 0  9996
2 54686  97.5390 129.6800 0012593 239.0133 238.6441 15.09478866  1745
2022-167F               
1 54687U 22167F   22354.87313448  .00007830  00000+0  49061-3 0  9992
2 54687  97.5372 129.6784 0013303 239.2332 236.4392 15.09554093  1748
2022-167G               
1 54688U 22167G   22354.87281578  .00010556  00000+0  65783-3 0  9999
2 54688  97.5347 129.6753 0013561 239.2751 237.8331 15.09663202  1749
2022-167H               
1 54689U 22167H   22354.87926619  .00006143  00000+0  38529-3 0  9997
2 54689  97.5451 129.6963 0013713 239.3969 272.4855 15.09604373  1740
2022-167J               
1 54690U 22167J   22354.87811001  .00006205  00000+0  38754-3 0  9996
2 54690  97.5331 129.6811 0013996 242.3145 269.4924 15.09754226  1740
2022-167K               
1 54691U 22167K   22354.87867784  .00006333  00000+0  39614-3 0  9994
2 54691  97.5388 129.6893 0014320 241.8183 270.0208 15.09685932  1741
2022-167L               
1 54692U 22167L   22354.87805098  .00006230  00000+0  38890-3 0  9996
2 54692  97.5438 129.6957 0014620 241.2773 270.5275 15.09761724  1744
2022-167M               
1 54693U 22167M   22354.87938420  .00011865  00000+0  75566-3 0  9994
2 54693  97.5409 129.6746 0014157 223.4345 253.8928 15.08826402  1711
2022-167N               
1 54694U 22167N   22354.87721774  .00006314  00000+0  39289-3 0  9992
2 54694  97.5349 129.6843 0014922 242.3351 269.4172 15.09870055  1741
2022-167P               
1 54695U 22167P   22354.87719909  .00006271  00000+0  39018-3 0  9992
2 54695  97.5399 129.6907 0015209 242.2875 269.4639 15.09871853  1742
FALCON 9 R/B            
1 54698U 22168C   22345.32368031  .00002049 -64822-5  00000+0 0  9995
2 54698  29.0000  41.2312 0098300  59.8200  27.0300 16.15592824    07
2022-169A               
1 54699U 22169A   22354.72166468  .00000094  00000+0  90323-4 0  9992
2 54699  59.9949 129.4621 0006669 255.2573 104.7684 14.29221708  1198
2022-169B               
1 54700U 22169B   22354.72442346  .00000304  00000+0  17453-3 0  9993
2 54700  59.9942 129.4738 0007052 236.8559 123.1747 14.28667039  1194
2022-169C               
1 54701U 22169C   22355.01884895  .00000183  00000+0  84261-4 0  9993
2 54701  59.9558 127.4807 0094346  47.5512 313.3466 14.49495457  1255
2022-169D               
1 54702U 22169D   22354.65224305  .00000946  00000+0  42518-3 0  9992
2 54702  59.9969 129.6981 0006305 246.7875 113.2443 14.29137347  1196
SZ-14 MODULE            
1 54704U 22060G   22354.95419463  .00024272  00000+0  28675-3 0  9994
2 54704  41.4865 161.8042 0007990 182.9575 313.0556 15.60705570  2320
GALAXY 35 (G-35)        
1 54741U 22170A   22354.48052271  .00000088  00000+0  00000+0 0  9992
2 54741   3.2800 218.0866 5571715 180.1209  86.7088  1.94784646   128
GALAXY 36 (G-36)        
1 54742U 22170B   22350.43859110 -.00000334  00000+0  00000+0 0  9996
2 54742   3.4336 218.5937 5690547 178.9969 147.4018  1.97366996    59
METEOSAT-12             
1 54743U 22170C   22353.31524981 -.00000002  00000+0  00000+0 0  9994
2 54743   5.5504 217.8990 7131836 181.4542 110.3708  2.25104636   115
ARIANE 5 DEB [SYLDA]    
1 54744U 22170D   22354.63742733  .00039763  00000+0  69433-2 0  9991
2 54744   6.0046 216.2250 7285916 183.6260 164.1293  2.28624037   150
ARIANE 5 R/B            
1 54745U 22170E   22350.70750442  .00034354  00000+0  36366-2 0  9992
2 54745   5.8807 219.6241 7285962 178.2913 187.0722  2.29667630    64
2022-171A               
1 54746U 22171A   22354.28223372 -.00000037  00000+0  00000+0 0  9993
2 54746  34.9949 300.5470 0008388 309.8332 200.7825 15.22947512   844
2022-171B               
1 54747U 22171B   22354.34427439 -.00000038  00000+0  00000+0 0  9992
2 54747  34.9981 300.1391 0008649 311.0097 186.3896 15.23508336   825
2022-171C               
1 54748U 22171C   22354.34361404 -.00000038  00000+0  00000+0 0  9992
2 54748  34.9952 300.1331 0010500 335.0408 162.0699 15.23199456   820
2022-171D               
1 54749U 22171D   22354.98483594 -.00000038  00000+0  00000+0 0  9998
2 54749  34.9957 296.0848 0009625 324.1759  99.5783 15.23864413   927
2022-171E               
1 54750U 22171E   22353.93857661 -.00000037  00000+0  00000+0 0  9993
2 54750  34.9853 302.6734 0010004 335.2360 102.3040 15.23659867   751
2022-167Q               
1 54751U 22167Q   22354.81023679  .00007909  00000+0  49420-3 0  9998
2 54751  97.5357 129.6157 0013417 241.0239 257.0683 15.09651289  1398
SHIYAN 21               
1 54752U 22172A   22354.84298654  .00008298  00000+0  30130-3 0  9995
2 54752  35.9985 126.2035 0014119 340.9925 163.2728 15.27625419   709
SWOT                    
1 54754U 22173A   22354.36625317  .00137754  00000+0  76186-1 0  9994
2 54754  77.5931 320.7692 0003900   9.7378 350.1435 14.10348206   543
2022-174A               
1 54755U 22174A   22354.18870313  .00000047  00000+0  00000+0 0  9998
2 54755   9.6160 255.9695 1871675 189.7959 165.9945  7.26208386   241
2022-174B               
1 54756U 22174B   22355.01311741  .00000047  00000+0  00000+0 0  9997
2 54756   9.6190 254.7762 1869900 192.2077 162.5686  7.26305343   296
2022-174C               
1 54757U 22174C   22353.36484503  .00000047  00000+0  00000+0 0  9991
2 54757   9.6209 257.1735 1868337 187.4265 169.3825  7.25878007   160
